IRIDIUM 155             
1 43573U 18061E   24249.77549067  .00001137  00000+0  39901-3 0  9990
2 43573  86.4002 328.0883 0001919  93.7484 266.3931 14.34219325320280
IRIDIUM 154             
1 43574U 18061F   24249.26808473  .00000144  00000+0  44332-4 0  9996
2 43574  86.4010 328.4019 0002351  91.2800 268.8665 14.34217670320250
IRIDIUM 163             
1 43575U 18061G   24249.31881931  .00000245  00000+0  80506-4 0  9998
2 43575  86.4006 328.3164 0002063  91.9288 268.2144 14.34215189320230
IRIDIUM 156             
1 43576U 18061H   24249.78182955  .00000602  00000+0  20790-3 0  9995
2 43576  86.4007 328.1297 0001929  96.5367 263.6048 14.34216710320284
IRIDIUM 164             
1 43577U 18061J   24249.76280105  .00000603  00000+0  20837-3 0  9993
2 43577  86.4006 328.1676 0002292  96.0623 264.0834 14.34215904320337
IRIDIUM 159             
1 43578U 18061K   24249.73109284  .00001005  00000+0  35169-3 0  9990
2 43578  86.4004 328.1310 0002136  93.9945 266.1495 14.34218482320296
IRIDIUM 180             
1 43922U 19002A   24249.59104246  .00000190  00000+0  60729-4 0  9991
2 43922  86.3907 265.0359 0002375  90.1195 270.0273 14.34218743295887
IRIDIUM 176             
1 43923U 19002B   24249.59157899  .00001168  00000+0  18133-3 0  9991
2 43923  86.6038 265.0509 0002547  92.2780 267.8729 14.72250953303675
IRIDIUM 168             
1 43924U 19002C   24249.51494133  .00000012  00000+0 -26534-5 0  9993
2 43924  86.3913 265.1266 0002248  92.2653 267.8800 14.34217601295854
IRIDIUM 173             
1 43925U 19002D   24249.57202370  .00000264  00000+0  87034-4 0  9999
2 43925  86.3906 265.0183 0002370  89.0727 271.0740 14.34218503295858
IRIDIUM 169             
1 43926U 19002E   24250.15779575  .00001146  00000+0  36797-3 0  9991
2 43926  86.4199 296.4224 0001933  37.8726 322.2608 14.38617935296918
IRIDIUM 172             
1 43927U 19002F   24249.49591092  .00000050  00000+0  10854-4 0  9993
2 43927  86.3905 265.0562 0002194  93.4455 266.6991 14.34217484295845
IRIDIUM 175             
1 43928U 19002G   24249.45014572  .00001644  00000+0  25663-3 0  9996
2 43928  86.1485 233.7189 0002312  91.2821 268.8660 14.72263852303646
IRIDIUM 171             
1 43929U 19002H   24249.54664894  .00000324  00000+0  10851-3 0  9992
2 43929  86.3916 265.2696 0002289  98.6277 261.5178 14.34220930295844
IRIDIUM 170             
1 43930U 19002J   24249.52979589  .00001087  00000+0  16850-3 0  9994
2 43930  86.6038 265.0821 0002532  91.0162 269.1345 14.72251394303674
IRIDIUM 167             
1 43931U 19002K   24249.54031186  .00000148  00000+0  45664-4 0  9992
2 43931  86.3908 265.0542 0002203  94.6477 265.4970 14.34218115295845
IRIDIUM 181             
1 56726U 23068S   24249.72224988  .00001570  00000+0  45787-3 0  9994
2 56726  86.8658 322.6522 0001843  95.6109 264.5303 14.43587759 68759
IRIDIUM 177             
1 56727U 23068T   24250.14423559  .00001823  00000+0  23644-3 0  9997
2 56727  86.1924 276.9163 0001843  91.3848 268.7585 14.80231546 70352
IRIDIUM 174             
1 56728U 23068U   24249.12474905  .00002331  00000+0  30297-3 0  9992
2 56728  86.1927 277.5110 0001824 105.9424 254.1998 14.80278003 70206
IRIDIUM 178             
1 56729U 23068V   24249.66025381  .00004586  00000+0  59961-3 0  9995
2 56729  86.5755 298.5481 0002130 101.5166 258.6295 14.80251836 70282
IRIDIUM 179             
1 56730U 23068W   24249.72261406  .00004657  00000+0  60926-3 0  9996
2 56730  86.6773 303.6734 0002031  89.3223 270.8231 14.80236919 70293
